[{"OBJECT_NAME":"STARLINK-2576","OBJECT_ID":"2021-038AZ","EPOCH":"2026-03-09T22:53:25.929312","MEAN_MOTION":15.30182761,"ECCENTRICITY":0.00010897,"INCLINATION":53.1586,"RA_OF_ASC_NODE":331.3901,"ARG_OF_PERICENTER":73.3268,"MEAN_ANOMALY":286.7852,"EPHEMERIS_TYPE":0,"CLASSIFICATION_TYPE":"U","NORAD_CAT_ID":48400,"ELEMENT_SET_NO":999,"REV_AT_EPOCH":26748,"BSTAR":-3.3990603e-5,"MEAN_MOTION_DOT":-1.365e-5,"MEAN_MOTION_DDOT":0},{"OBJECT_NAME":"SPACEMOBILE-005 DEB","OBJECT_ID":"2024-163K","EPOCH":"2026-03-09T07:33:15.902496","MEAN_MOTION":15.31481997,"ECCENTRICITY":0.00072885,"INCLINATION":52.9762,"RA_OF_ASC_NODE":31.7924,"ARG_OF_PERICENTER":175.8731,"MEAN_ANOMALY":184.2329,"EPHEMERIS_TYPE":0,"CLASSIFICATION_TYPE":"U","NORAD_CAT_ID":62373,"ELEMENT_SET_NO":999,"REV_AT_EPOCH":8280,"BSTAR":0.00063853778,"MEAN_MOTION_DOT":0.00019381,"MEAN_MOTION_DDOT":0}]
